NORAD_CAT_ID,OBJECT_NAME,OBJECT_TYPE,EPOCH,MEAN_MOTION,ECCENTRICITY,INCLINATION,RA_OF_ASC_NODE,ARG_OF_PERICENTER,MEAN_ANOMALY,BSTAR,MEAN_MOTION_DOT,MEAN_MOTION_DDOT,TLE_LINE0,TLE_LINE1,TLE_LINE2,SEMIMAJOR_AXIS,PERIOD,APOGEE,PERIGEE,DECAYED
52873.0,STARLINK-4211,PAYLOAD,2023-01-11 12:22:58,15.08844571,0.0002404,53.2168,150.9174,50.3019,309.8185,0.0001058,1.396e-05,0.0,0 STARLINK-4211,1 52873U 22062AV  23011.51595692  .00001396  00000-0  10580-3 0  9992,2 52873  53.2168 150.9174 0002404  50.3019 309.8185 15.08844571 32469,6917.866,95.437,541.394,538.068,0.0
52873.0,STARLINK-4211,PAYLOAD,2023-01-11 18:44:31,15.08849429,0.0002535,53.2171,149.7284,40.1071,320.0107,3.6794e-05,2.97e-06,0.0,0 STARLINK-4211,1 52873U 22062AV  23011.78091506  .00000297  00000-0  36794-4 0  9991,2 52873  53.2171 149.7284 0002535  40.1071 320.0107 15.08849429 32018,6917.852,95.437,541.47,537.9630000000002,0.0
52873.0,STARLINK-4211,PAYLOAD,2023-01-12 18:35:19,15.0883008,0.0002319,53.2167,145.2707,38.702,321.4138,3.2461999999999995e-05,2.28e-06,0.0,0 STARLINK-4211,1 52873U 22062AV  23012.77452907  .00000228  00000-0  32462-4 0  9999,2 52873  53.2167 145.2707 0002319  38.7020 321.4138 15.08830080 32653,6917.911,95.438,541.38,538.1709999999998,0.0
52873.0,STARLINK-4211,PAYLOAD,2023-01-13 12:04:34,15.08828496,0.0002289,53.2168,141.9982,43.8703,316.2471,-8.1733e-05,-1.589e-05,0.0,0 STARLINK-4211,1 52873U 22062AV  23013.50317759 -.00001589  00000-0 -81733-4 0  9994,2 52873  53.2168 141.9982 0002289  43.8703 316.2471 15.08828496 32271,6917.916,95.438,541.364,538.197,0.0
52873.0,STARLINK-4211,PAYLOAD,2023-01-13 18:26:06,15.08838053,0.0002008999999999,53.2164,140.8093,50.6767,309.4403,3.7079e-06,-2.29e-06,0.0,0 STARLINK-4211,1 52873U 22062AV  23013.76812960 -.00000229  00000-0  37079-5 0  9990,2 52873  53.2164 140.8093 0002009  50.6767 309.4403 15.08838053 32318,6917.886,95.438,541.141,538.362,0.0
52873.0,STARLINK-4211,PAYLOAD,2023-01-14 00:47:39,15.08827171,0.0002767,53.2163,139.6211,51.206,308.9179,-2.7073000000000003e-05,-7.19e-06,0.0,0 STARLINK-4211,1 52873U 22062AV  23014.03310094 -.00000719  00000-0 -27073-4 0  9999,2 52873  53.2163 139.6211 0002767  51.2060 308.9179 15.08827171 32840,6917.92,95.438,541.6990000000001,537.87,0.0
52873.0,STARLINK-4211,PAYLOAD,2023-01-14 15:06:07,15.08836542,0.0002164,53.2159,136.9463,45.6514,314.4655,0.00023146,3.397e-05,0.0,0 STARLINK-4211,1 52873U 22062AV  23014.62925233  .00003397  00000-0  23146-3 0  9990,2 52873  53.2159 136.9463 0002164  45.6514 314.4655 15.08836542 32939,6917.891,95.438,541.253,538.259,0.0
52873.0,STARLINK-4211,PAYLOAD,2023-01-15 00:38:27,15.08827891,0.0002331,53.2164,135.1604,44.3163,315.8015,8.5218e-05,1.068e-05,0.0,0 STARLINK-4211,1 52873U 22062AV  23015.02670303  .00001068  00000-0  85218-4 0  9992,2 52873  53.2164 135.1604 0002331  44.3163 315.8015 15.08827891 32993,6917.917,95.438,541.395,538.17,0.0
52873.0,STARLINK-4211,PAYLOAD,2023-01-15 13:21:32,15.08834548,0.0001409999999999,53.2161,132.7808,74.8623,285.2525,5.8385e-05,6.41e-06,0.0,0 STARLINK-4211,1 52873U 22062AV  23015.55662302  .00000641  00000-0  58385-4 0  9991,2 52873  53.2161 132.7808 0001410  74.8623 285.2525 15.08834548 32583,6917.897,95.438,540.737,538.7869999999999,0.0
52873.0,STARLINK-4211,PAYLOAD,2023-01-15 18:07:41,15.0884313,0.0001926,53.2169,131.8897,50.4491,309.6671,0.00011279,1.508e-05,0.0,0 STARLINK-4211,1 52873U 22062AV  23015.75533792  .00001508  00000-0  11279-3 0  9996,2 52873  53.2169 131.8897 0001926  50.4491 309.6671 15.08843130 33103,6917.871,95.437,541.068,538.403,0.0
52873.0,STARLINK-4211,PAYLOAD,2023-01-16 00:29:14,15.08826748,0.0002106,53.2183,130.7006,56.3683,303.7509,8.418799999999999e-05,1.051e-05,0.0,0 STARLINK-4211,1 52873U 22062AV  23016.02031227  .00001051  00000-0  84188-4 0  9996,2 52873  53.2183 130.7006 0002106  56.3683 303.7509 15.08826748 33143,6917.920999999999,95.438,541.243,538.3290000000001,0.0
52873.0,STARLINK-4211,PAYLOAD,2023-01-16 13:12:18,15.08853096,0.0001440999999999,53.2153,128.3216,92.3949,267.7208,0.00013113,1.8e-05,0.0,0 STARLINK-4211,1 52873U 22062AV  23016.55021272  .00001800  00000-0  13113-3 0  9994,2 52873  53.2153 128.3216 0001441  92.3949 267.7208 15.08853096 33222,6917.84,95.437,540.702,538.7080000000001,0.0
52873.0,STARLINK-4211,PAYLOAD,2023-01-16 16:23:04,15.08859528,0.0001968,53.2175,127.7273,51.4326,308.6842,0.00016755,2.381e-05,0.0,0 STARLINK-4211,1 52873U 22062AV  23016.68268968  .00002381  00000-0  16755-3 0  9993,2 52873  53.2175 127.7273 0001968  51.4326 308.6842 15.08859528 32753,6917.821,95.436,541.047,538.3240000000001,0.0
52873.0,STARLINK-4211,PAYLOAD,2023-01-17 00:20:01,15.08827756,0.0001904,53.2155,126.2393,63.3315,296.7872,-2.1573e-05,-6.31e-06,0.0,0 STARLINK-4211,1 52873U 22062AV  23017.01390988 -.00000631  00000-0 -21573-4 0  9992,2 52873  53.2155 126.2393 0001904  63.3315 296.7872 15.08827756 33296,6917.918000000001,95.438,541.1,538.466,0.0
52873.0,STARLINK-4211,PAYLOAD,2023-01-17 13:03:08,15.08811878,0.0001257,53.2186,123.8622,61.8476,298.2643,-2.1892e-05,-6.36e-06,0.0,0 STARLINK-4211,1 52873U 22062AV  23017.54385004 -.00000636  00000-0 -21892-4 0  9992,2 52873  53.2186 123.8622 0001257  61.8476 298.2643 15.08811878 33370,6917.965999999999,95.439,540.701,538.962,0.0
52873.0,STARLINK-4211,PAYLOAD,2023-01-17 16:13:54,15.08824876,0.0001855,53.2168,123.2681,67.3495,292.7693,-6.9771e-05,-1.398e-05,0.0,0 STARLINK-4211,1 52873U 22062AV  23017.67632567 -.00001398  00000-0 -69771-4 0  9999,2 52873  53.2168 123.2681 0001855  67.3495 292.7693 15.08824876 33393,6917.927,95.439,541.075,538.508,0.0
52873.0,STARLINK-4211,PAYLOAD,2023-01-18 06:32:22,15.08836591,0.0001859,53.2172,120.5888,70.1169,290.0023,0.00011741,1.581e-05,0.0,0 STARLINK-4211,1 52873U 22062AV  23018.27247751  .00001581  00000-0  11741-3 0  9998,2 52873  53.2172 120.5888 0001859  70.1169 290.0023 15.08836591 33486,6917.891,95.438,541.0419999999999,538.47,0.0
52873.0,STARLINK-4211,PAYLOAD,2023-01-18 12:53:53,15.08855095,0.0001343,53.2169,119.4033,62.3409,297.7719,0.00038668,5.874e-05,0.0,0 STARLINK-4211,1 52873U 22062AV  23018.53742696  .00005874  00000-0  38668-3 0  9991,2 52873  53.2169 119.4033 0001343  62.3409 297.7719 15.08855095 33036,6917.834,95.437,540.628,538.77,0.0
52873.0,STARLINK-4211,PAYLOAD,2023-01-19 06:23:09,15.08836153,0.0002491,53.2154,116.1308,86.1298,273.9979,0.00029567,4.42e-05,0.0,0 STARLINK-4211,1 52873U 22062AV  23019.26607901  .00004420  00000-0  29567-3 0  9995,2 52873  53.2154 116.1308 0002491  86.1298 273.9979 15.08836153 33638,6917.892,95.438,541.48,538.034,0.0
52873.0,STARLINK-4211,PAYLOAD,2023-01-19 09:33:55,15.08834123,0.0002259,53.2143,115.5346,94.8077,265.3173,0.00021063,3.065e-05,0.0,0 STARLINK-4211,1 52873U 22062AV  23019.39855912  .00003065  00000-0  21063-3 0  9993,2 52873  53.2143 115.5346 0002259  94.8077 265.3173 15.08834123 33168,6917.898,95.438,541.326,538.201,0.0
52873.0,STARLINK-4211,PAYLOAD,2023-01-20 12:35:27,15.08852397,0.00014,53.2168,110.4809,96.5479,263.5672,5.720000000000001e-05,6.23e-06,0.0,0 STARLINK-4211,1 52873U 22062AV  23020.52462833  .00000623  00000-0  57200-4 0  9996,2 52873  53.2168 110.4809 0001400  96.5479 263.5672 15.08852397 33825,6917.842,95.437,540.6759999999999,538.739,0.0
52873.0,STARLINK-4211,PAYLOAD,2023-01-21 02:53:56,15.08834137,0.000153,53.2165,107.8069,98.2898,261.8267,0.00011258,1.504e-05,0.0,0 STARLINK-4211,1 52873U 22062AV  23021.12079797  .00001504  00000-0  11258-3 0  9997,2 52873  53.2165 107.8069 0001530  98.2898 261.8267 15.08834137 33911,6917.898,95.438,540.822,538.705,0.0
52873.0,STARLINK-4211,PAYLOAD,2023-01-21 15:37:01,15.08850792,0.0001460999999999,53.2155,105.4268,96.8332,263.2826,0.00029275,4.376e-05,0.0,0 STARLINK-4211,1 52873U 22062AV  23021.65070952  .00004376  00000-0  29275-3 0  9997,2 52873  53.2155 105.4268 0001461  96.8332 263.2826 15.08850792 33995,6917.847,95.437,540.7230000000001,538.702,0.0
52873.0,STARLINK-4211,PAYLOAD,2023-01-22 04:20:06,15.08843046,0.0001266,53.217,103.0469,108.807,251.3059,0.00011443,1.534e-05,0.0,0 STARLINK-4211,1 52873U 22062AV  23022.18063195  .00001534  00000-0  11443-3 0  9998,2 52873  53.2170 103.0469 0001266 108.8070 251.3059 15.08843046 34075,6917.871,95.437,540.612,538.86,0.0
52873.0,STARLINK-4211,PAYLOAD,2023-01-22 12:17:01,15.08860343,0.0001175,53.2168,101.5609,102.7046,257.4078,0.00040766,6.21e-05,0.0,0 STARLINK-4211,1 52873U 22062AV  23022.51182404  .00006210  00000-0  40766-3 0  9996,2 52873  53.2168 101.5609 0001175 102.7046 257.4078 15.08860343 34129,6917.818,95.436,540.496,538.87,0.0
52873.0,STARLINK-4211,PAYLOAD,2023-01-23 04:10:53,15.0883159,0.0001127,53.2173,98.5889,94.4173,265.6948,-0.00020307,-3.517e-05,0.0,0 STARLINK-4211,1 52873U 22062AV  23023.17423134 -.00003517  00000-0 -20307-3 0  9995,2 52873  53.2173  98.5889 0001127  94.4173 265.6948 15.08831590 34225,6917.906,95.438,540.5509999999999,538.991,0.0
52873.0,STARLINK-4211,PAYLOAD,2023-01-24 11:58:36,15.08839265,0.0001081,53.2155,92.6409,86.1181,273.9935,0.00023469,3.449e-05,0.0,0 STARLINK-4211,1 52873U 22062AV  23024.49903540  .00003449  00000-0  23469-3 0  9999,2 52873  53.2155  92.6409 0001081  86.1181 273.9935 15.08839265 34421,6917.883000000001,95.438,540.495,539.0,0.0
52873.0,STARLINK-4211,PAYLOAD,2023-01-25 13:24:45,15.08876684,0.0001313,53.2152,87.8817,83.2016,276.9126,0.0011014,0.00017302,0.0,0 STARLINK-4211,1 52873U 22062AV  23025.55886353  .00017302  00000-0  11014-2 0  9994,2 52873  53.2152  87.8817 0001313  83.2016 276.9126 15.08876684 34588,6917.768,95.435,540.5419999999999,538.725,0.0
52873.0,STARLINK-4211,PAYLOAD,2023-01-25 21:21:41,15.08853662,0.0001295,53.2153,86.3956,82.8708,277.2431,0.0001202,1.626e-05,0.0,0 STARLINK-4211,1 52873U 22062AV  23025.89006521  .00001626  00000-0  12020-3 0  9993,2 52873  53.2153  86.3956 0001295  82.8708 277.2431 15.08853662 34639,6917.839,95.437,540.599,538.808,0.0
